{
  "type": "FeatureCollection",
  "features": [
    {
      "type": "Feature",
      "properties": {
        "norad_id": 33860,
        "name": "IRIDIUM 33 DEB",
        "group": "iridium-33-debris",
        "lat": -71.40977730273457,
        "lon": 20.587111663194584,
        "alt_km": 678.6322407608704,
        "timestamp": "2025-12-03T06:58:43.626387+00:00",
        "meta_object_name": "IRIDIUM 33 DEB",
        "meta_object_id": "1997-051AD",
        "meta_epoch": "2025-12-02T10:04:20.166240",
        "meta_mean_motion": 14.67141398,
        "meta_eccentricity": 0.00087027,
        "meta_inclination": 86.3853,
        "meta_ra_of_asc_node": 31.805,
        "meta_arg_of_pericenter": 31.5096,
        "meta_mean_anomaly": 338.9281,
        "meta_ephemeris_type": 0,
        "meta_classification_type": "U",
        "meta_norad_cat_id": 33860,
        "meta_element_set_no": 999,
        "meta_rev_at_epoch": 88571,
        "meta_bstar": 0.0015472239,
        "meta_mean_motion_dot": 8.725e-05,
        "meta_mean_motion_ddot": 0,
        "tle_line1": "1 33860U 97051AD  25336.41967785  .00008725  00000+0  15472-2 0  9990",
        "tle_line2": "2 33860  86.3853  31.8050 0008702  31.5096 338.9281 14.67141398885710"
      },
      "geometry": {
        "type": "Point",
        "coordinates": [
          20.587111663194584,
          -71.40977730273457
        ]
      }
    },
    {
      "type": "Feature",
      "properties": {
        "norad_id": 33862,
        "name": "IRIDIUM 33 DEB",
        "group": "iridium-33-debris",
        "lat": -72.8737239434203,
        "lon": -126.54960082723852,
        "alt_km": 704.7322030060777,
        "timestamp": "2025-12-03T06:58:43.626399+00:00",
        "meta_object_name": "IRIDIUM 33 DEB",
        "meta_object_id": "1997-051AF",
        "meta_epoch": "2025-12-02T17:18:50.001120",
        "meta_mean_motion": 14.69200192,
        "meta_eccentricity": 0.0054058,
        "meta_inclination": 86.4104,
        "meta_ra_of_asc_node": 41.9467,
        "meta_arg_of_pericenter": 102.6087,
        "meta_mean_anomaly": 20.7937,
        "meta_ephemeris_type": 0,
        "meta_classification_type": "U",
        "meta_norad_cat_id": 33862,
        "meta_element_set_no": 999,
        "meta_rev_at_epoch": 88676,
        "meta_bstar": 0.0016998,
        "meta_mean_motion_dot": 0.00010263,
        "meta_mean_motion_ddot": 0,
        "tle_line1": "1 33862U 97051AF  25336.72141205  .00010263  00000+0  16998-2 0  9991",
        "tle_line2": "2 33862  86.4104  41.9467 0054058 102.6087  20.7937 14.69200192886761"
      },
      "geometry": {
        "type": "Point",
        "coordinates": [
          -126.54960082723852,
          -72.8737239434203
        ]
      }
    },
    {
      "type": "Feature",
      "properties": {
        "norad_id": 33866,
        "name": "IRIDIUM 33 DEB",
        "group": "iridium-33-debris",
        "lat": 15.995975010024253,
        "lon": 98.09581897455331,
        "alt_km": 889.8877096165124,
        "timestamp": "2025-12-03T06:58:43.626411+00:00",
        "meta_object_name": "IRIDIUM 33 DEB",
        "meta_object_id": "1997-051AK",
        "meta_epoch": "2025-12-02T19:41:05.013024",
        "meta_mean_motion": 14.25216056,
        "meta_eccentricity": 0.0113612,
        "meta_inclination": 86.2996,
        "meta_ra_of_asc_node": 97.2319,
        "meta_arg_of_pericenter": 193.0335,
        "meta_mean_anomaly": 290.2522,
        "meta_ephemeris_type": 0,
        "meta_classification_type": "U",
        "meta_norad_cat_id": 33866,
        "meta_element_set_no": 999,
        "meta_rev_at_epoch": 86669,
        "meta_bstar": 0.00085077,
        "meta_mean_motion_dot": 2.157e-05,
        "meta_mean_motion_ddot": 0,
        "tle_line1": "1 33866U 97051AK  25336.82019691  .00002157  00000+0  85077-3 0  9997",
        "tle_line2": "2 33866  86.2996  97.2319 0113612 193.0335 290.2522 14.25216056866696"
      },
      "geometry": {
        "type": "Point",
        "coordinates": [
          98.09581897455331,
          15.995975010024253
        ]
      }
    },
    {
      "type": "Feature",
      "properties": {
        "norad_id": 33867,
        "name": "IRIDIUM 33 DEB",
        "group": "iridium-33-debris",
        "lat": 31.124971552763487,
        "lon": 172.76041396612894,
        "alt_km": 399.2679738661691,
        "timestamp": "2025-12-03T06:58:43.626422+00:00",
        "meta_object_name": "IRIDIUM 33 DEB",
        "meta_object_id": "1997-051AL",
        "meta_epoch": "2025-12-02T13:20:02.989824",
        "meta_mean_motion": 15.53021793,
        "meta_eccentricity": 0.0011961,
        "meta_inclination": 86.3627,
        "meta_ra_of_asc_node": 355.3354,
        "meta_arg_of_pericenter": 101.6742,
        "meta_mean_anomaly": 258.5862,
        "meta_ephemeris_type": 0,
        "meta_classification_type": "U",
        "meta_norad_cat_id": 33867,
        "meta_element_set_no": 999,
        "meta_rev_at_epoch": 89352,
        "meta_bstar": 0.0069764996,
        "meta_mean_motion_dot": 0.00460983,
        "meta_mean_motion_ddot": 0,
        "tle_line1": "1 33867U 97051AL  25336.55559016  .00460983  00000+0  69765-2 0  9998",
        "tle_line2": "2 33867  86.3627 355.3354 0011961 101.6742 258.5862 15.53021793893527"
      },
      "geometry": {
        "type": "Point",
        "coordinates": [
          172.76041396612894,
          31.124971552763487
        ]
      }
    },
    {
      "type": "Feature",
      "properties": {
        "norad_id": 33870,
        "name": "IRIDIUM 33 DEB",
        "group": "iridium-33-debris",
        "lat": 43.407402169923564,
        "lon": -121.12668577532956,
        "alt_km": 731.7805334727964,
        "timestamp": "2025-12-03T06:58:43.626433+00:00",
        "meta_object_name": "IRIDIUM 33 DEB",
        "meta_object_id": "1997-051AP",
        "meta_epoch": "2025-12-02T15:58:47.326656",
        "meta_mean_motion": 14.45755935,
        "meta_eccentricity": 0.0020412,
        "meta_inclination": 86.3757,
        "meta_ra_of_asc_node": 62.5781,
        "meta_arg_of_pericenter": 211.7311,
        "meta_mean_anomaly": 274.2392,
        "meta_ephemeris_type": 0,
        "meta_classification_type": "U",
        "meta_norad_cat_id": 33870,
        "meta_element_set_no": 999,
        "meta_rev_at_epoch": 87991,
        "meta_bstar": 0.0011570122,
        "meta_mean_motion_dot": 4.129e-05,
        "meta_mean_motion_ddot": 0,
        "tle_line1": "1 33870U 97051AP  25336.66582554  .00004129  00000+0  11570-2 0  9994",
        "tle_line2": "2 33870  86.3757  62.5781 0020412 211.7311 274.2392 14.45755935879914"
      },
      "geometry": {
        "type": "Point",
        "coordinates": [
          -121.12668577532956,
          43.407402169923564
        ]
      }
    },
    {
      "type": "Feature",
      "properties": {
        "norad_id": 33881,
        "name": "IRIDIUM 33 DEB",
        "group": "iridium-33-debris",
        "lat": 4.06261929463233,
        "lon": 111.10359386413177,
        "alt_km": 748.105919864056,
        "timestamp": "2025-12-03T06:58:43.626443+00:00",
        "meta_object_name": "IRIDIUM 33 DEB",
        "meta_object_id": "1997-051BA",
        "meta_epoch": "2025-12-02T19:57:47.822400",
        "meta_mean_motion": 14.56277041,
        "meta_eccentricity": 0.0061124,
        "meta_inclination": 86.3866,
        "meta_ra_of_asc_node": 111.0458,
        "meta_arg_of_pericenter": 206.7741,
        "meta_mean_anomaly": 272.4639,
        "meta_ephemeris_type": 0,
        "meta_classification_type": "U",
        "meta_norad_cat_id": 33881,
        "meta_element_set_no": 999,
        "meta_rev_at_epoch": 87356,
        "meta_bstar": 0.0024223,
        "meta_mean_motion_dot": 0.00011022,
        "meta_mean_motion_ddot": 0,
        "tle_line1": "1 33881U 97051BA  25336.83180350  .00011022  00000+0  24223-2 0  9992",
        "tle_line2": "2 33881  86.3866 111.0458 0061124 206.7741 272.4639 14.56277041873562"
      },
      "geometry": {
        "type": "Point",
        "coordinates": [
          111.10359386413177,
          4.06261929463233
        ]
      }
    },
    {
      "type": "Feature",
      "properties": {
        "norad_id": 33884,
        "name": "IRIDIUM 33 DEB",
        "group": "iridium-33-debris",
        "lat": -37.69481910466459,
        "lon": 11.27181863916656,
        "alt_km": 638.815822759756,
        "timestamp": "2025-12-03T06:58:43.626453+00:00",
        "meta_object_name": "IRIDIUM 33 DEB",
        "meta_object_id": "1997-051BD",
        "meta_epoch": "2025-12-02T20:33:53.927424",
        "meta_mean_motion": 14.77123988,
        "meta_eccentricity": 0.0010733,
        "meta_inclination": 86.3703,
        "meta_ra_of_asc_node": 14.2791,
        "meta_arg_of_pericenter": 359.9957,
        "meta_mean_anomaly": 176.5315,
        "meta_ephemeris_type": 0,
        "meta_classification_type": "U",
        "meta_norad_cat_id": 33884,
        "meta_element_set_no": 999,
        "meta_rev_at_epoch": 88701,
        "meta_bstar": 0.0016779,
        "meta_mean_motion_dot": 0.000119,
        "meta_mean_motion_ddot": 0,
        "tle_line1": "1 33884U 97051BD  25336.85687416  .00011900  00000+0  16779-2 0  9994",
        "tle_line2": "2 33884  86.3703  14.2791 0010733 359.9957 176.5315 14.77123988887012"
      },
      "geometry": {
        "type": "Point",
        "coordinates": [
          11.27181863916656,
          -37.69481910466459
        ]
      }
    }
  ]
}